CUBEBUG-2 (LO-74)       
1 39440U 13066AA  26154.33051700  .00005093  00000+0  47123-3 0  9999
2 39440  97.8904 103.2522 0059453  73.9566 286.8190 14.93641817674922
FUNCUBE-1 (AO-73)       
1 39444U 13066AE  26154.73167875  .00008204  00000+0  51139-3 0  9997
2 39444  97.8276 125.8984 0034697 248.4796 111.2732 15.09317269677630
UWE-3                   
1 39446U 13066AG  26155.11452675  .00004488  00000+0  38663-3 0  9994
2 39446  97.8703 111.1024 0049393   5.4277 354.7469 14.96917145675626
UNISAT-6                
1 40012U 14033C   26154.68605104  .00003559  00000+0  38452-3 0  9992
2 40012  97.7869 307.6374 0046407 112.5348 248.0791 14.88166007644152
DUCHIFAT-1              
1 40021U 14033M   26153.68224173  .00099172  00000+0  11397-2 0  9998
2 40021  98.0473 210.8393 0005095 141.7306 218.4313 15.61688703653480
QB50P1                  
1 40025U 14033R   26154.57246974  .00009724  00000+0  48090-3 0  9999
2 40025  98.0967 164.7661 0007059 272.3380  87.7044 15.18040602650962
LILACSAT-2              
1 40908U 15049K   26155.17730567  .00018873  00000+0  32633-3 0  9991
2 40908  97.4655 191.5276 0005381 308.6062  51.4707 15.50996507593730
FOX-1A (AO-85)          
1 40967U 15058D   26155.07149729  .00003290  00000+0  29844-3 0  9996
2 40967  64.7763 319.7410 0129768  61.7322 299.6816 14.90899033111617
CAS-2T & KS-1Q          
1 41847U 16066G   26155.08073514  .00001943  00000+0  28010-3 0  9990
2 41847  98.3817 230.9662 0342271 169.1491 191.7333 14.44649631502905
RADFXSAT (FOX-1B)       
1 43017U 17073E   26154.58070663  .00011424  00000+0  49801-3 0  9992
2 43017  97.4712  22.0755 0151634  16.2859 344.3167 15.12470589463338
DIWATA-2B               
1 43678U 18084H   26155.16548988  .00002596  00000+0  21165-3 0  9996
2 43678  98.1151 350.8099 0011779 213.8111 146.2361 15.00386734414268
ES'HAIL 2               
1 43700U 18090A   26155.14242119  .00000156  00000+0  00000+0 0  9995
2 43700   0.0174 355.2878 0001966 110.3925 223.9723  1.00272521 27545
FOX-1CLIFF (AO-95)      
1 43770U 18099N   26154.64024448  .00013080  00000+0  50433-3 0  9997
2 43770  97.4392 214.9391 0009397  44.7441 315.4554 15.26406805411154
ITASAT                  
1 43786U 18099AE  26154.91236250  .00007403  00000+0  35737-3 0  9992
2 43786  97.4030 206.6900 0013516  45.4174 314.8161 15.18878726410896
JY1SAT (JO-97)          
1 43803U 18099AX  26153.87000389  .00017885  00000+0  55972-3 0  9996
2 43803  97.4135 216.6595 0004371 332.8214  27.2798 15.33171132411436
UWE-4                   
1 43880U 18111E   26154.36119365  .00034900  00000+0  73362-3 0  9996
2 43880  97.5860  82.1246 0008243  33.3192 326.8573 15.45215882408648
TIANYAN 01              
1 44881U 19093C   26155.18794431  .00000677  00000+0  82487-4 0  9995
2 44881  97.7535 227.7367 0014656 125.5092 234.7493 14.86496995349484
RS-44 & BREEZE-KM R/B   
1 44909U 19096E   26155.02704110  .00000001  00000+0 -44333-4 0  9997
2 44909  82.5219 348.4520 0217591 174.8762 185.4640 12.79748573300667
SALSAT                  
1 46495U 20068K   26154.99736176  .00008555  00000+0  30076-3 0  9991
2 46495  97.8850 157.2614 0009364 359.9507   0.1729 15.29597840313346
XW-3 (CAS-9)            
1 50466U 21131B   26155.21200708  .00000659  00000+0  21731-3 0  9994
2 50466  98.4979 247.6719 0005044 126.8342 233.3310 14.41345372233247
GREENCUBE (IO-117)      
1 53109U 22080E   26152.46502029 -.00000003  00000+0  00000+0 0  9996
2 53109  70.1435 303.7143 0008869 293.3663  66.6064  6.42583280 91055
UMKA 1 (RS40S)          
1 57172U 23091G   26155.19723641  .00007009  00000+0  32161-3 0  9990
2 57172  97.5051 213.9455 0013476 158.8466 201.3329 15.20660736162037
CUBESX-HSE 3 (RS42S)    
1 57178U 23091N   26155.16785049  .00015001  00000+0  50399-3 0  9997
2 57178  97.5094 220.5936 0012045 134.9325 225.2895 15.30869571162434
MONITOR-3 (RS58S)       
1 57180U 23091Q   26155.16389975  .00011994  00000+0  44641-3 0  9998
2 57180  97.5085 218.5166 0012863 141.1957 219.0208 15.27565922162302
MONITOR-4 (RS57S)       
1 57182U 23091S   26155.14373027  .00012486  00000+0  46321-3 0  9993
2 57182  97.5078 218.4669 0012805 141.6583 218.5569 15.27663554162303
MONITOR-2 (RS39S)       
1 57184U 23091U   26155.20231679  .00005604  00000+0  27231-3 0  9991
2 57184  97.5075 213.5700 0012066 151.3600 208.8299 15.18783513161984
SVYATOBOR 1 (RS60S)     
1 57187U 23091X   26155.14575215  .00010063  00000+0  38898-3 0  9990
2 57187  97.5090 218.8925 0010712 133.7795 226.4331 15.26381950162326
VIZARD-METEO (RS38S)    
1 57189U 23091Z   26155.11681251  .00018692  00000+0  54136-3 0  9996
2 57189  97.5093 224.3441 0008752 116.2926 243.9218 15.35589021162685
POLYTECH-UNIVERSE 3 (R*)
1 57191U 23091AB  26155.16535316  .00006306  00000+0  30378-3 0  9995
2 57191  97.5050 213.0379 0015940 169.1245 191.0337 15.18983292161979
UTMN 2 (RS27S)          
1 57203U 23091AP  26155.19259168  .00014856  00000+0  48662-3 0  9994
2 57203  97.5089 222.2366 0009450 122.2122 238.0036 15.31717738162554
